#dP2023  1  2  6  0  0.00000000      96 __u+U ITR00 EXT  IAC
## 2243 108000.00000000   900.00000000 59946 0.2500000000000
+  118   C06C07C08C09C10C11C12C13C14C16C19C20C21C22C23C24C25
+        C26C27C28C29C30C32C33C34C36C37C38C39C40C41C42C43C44
+        C45C46E01E02E03E04E05E07E08E09E10E11E12E13E14E15E18
+        E19E21E24E25E26E27E30E31E33E34E36G01G02G03G04G05G06
+        G07G08G09G10G11G12G13G14G15G16G17G18G19G20G21G22G23
+        G24G25G26G27G29G30G31G32J02J03J04R01R02R03R04R05R07
+        R08R09R11R12R13R14R15R16R17R18R19R20R21R22R24R25  0
++        10 10 10 10 10 10  9  9  9 10  8  8  7  8  9  8  8
++         8 10  7  7  8 10  9  7  7 10 11 11 10 10  9  7  7
++         8  9  8  8  7  8  7  8  8  8  8  8  8  7  7  8  8
++         8  7  7  7  7  8  8  8  8  8  7  7  8  8  8  7  7
++         8  7  7  7  8  8  7  8  7  8  8  7  7  7  7  7  8
++         8  8  8  7  7  8  7  6 10  9  9  8  8  8  7  8  8
++         8  9  8  9 10  9  8  8  8  8  8 10  8  7  8  9  0
%c M  cc GPS ccc cccc cccc cccc cccc ccccc ccccc ccccc ccccc
%c cc cc ccc ccc cccc cccc cccc cccc ccccc ccccc ccccc ccccc
%f  0.0000000  0.000000000  0.00000000000  0.000000000000000
%f  0.0000000  0.000000000  0.00000000000  0.000000000000000
%i    0    0    0    0      0      0      0      0         0
%i    0    0    0    0      0      0      0      0         0
/* IAC                                ULTRA-RAPID PREDICTION
/* S/V CLOCKS ARE ALIGNED TO GNSS TIME                      
/* G:C1WC2W R:C1PC2P E:C1XC5X C:C2IC6I J:C1CC2S             
/* PCV:IGS20_2239 OL/AL:FES2004  NONE     YN ORB:CoN CLK:CoN
*  2023 01 02 19 15  0.00000000
PC06 -18200.273561  32044.138304 -20712.482584    208.869482
PC07  -3267.465912  39256.608337 -14733.465314     72.352160
PC08  -3147.511156  20887.502155  36522.146915    526.441146
PC09 -12024.188125  30684.955420 -26209.348821    100.842244
PC10   1342.286399  40563.889379 -10107.756701     39.862662
PC11   2920.172634 -20175.540889 -18992.342832   -200.342690
PC12  17536.990694 -21273.085029  -4303.729103    377.180639
PC13   2983.355467  23880.817370  34826.780454    173.659382
PC14  -6399.725725 -27127.323011  -1834.366414    327.593828
PC16 -21225.197031  31717.735622 -18064.994950     89.895650
PC19  12094.969202  24003.710533  -7454.979256   -899.199350
PC20    818.899255  26278.570764   9332.749778    782.756175
PC21  11823.033460 -12855.521238 -21754.567940   -920.074830
PC22  16933.012155   7734.308200 -20786.093647   -706.627374
PC23 -27084.396576  -6688.792299   -381.711548   -870.854455
PC24   4566.974144 -15663.635407  22620.828081   -592.599563
PC25 -17619.970799 -15325.397066  15247.702164     49.242122
PC26  20952.189835  -7549.908323  16820.796011    -58.732376
PC27 -21438.559320  17400.871725  -4113.008119     75.631911
PC28 -20852.914896   2873.805791 -18312.335821     54.383869
PC29   7924.552024  14503.522571  22483.747336     62.119851
PC30  -9736.892283  23107.653159  12268.496323      1.257189
PC32 -11801.710977  12838.475247  21798.365603   -662.387880
PC33 -12219.335359 -23985.169138   7380.070596   -885.281572
PC34   8680.565893 -22962.899196 -13255.355873     74.913815
PC36  16692.905546  15915.533142 -15703.249753   -722.693676
PC37 -22044.557820   6185.129894 -15928.830196   -860.084823
PC38 -11453.456600  20270.235357  35181.315226     49.267239
PC39 -23528.225204  32543.737277 -13166.848061     -1.281982
PC40  -8191.681899  36663.197827 -18967.605535    -11.605602
PC41 -17028.646138  -8310.357924  20536.067070   -449.338882
PC42    -14.685049 -25903.718356 -10358.854482   -919.966036
PC43  -7291.222265 -15175.033452 -22256.044991     33.301530
PC44  20844.300858 -18028.352788   4266.695055    164.808634
PC45  27153.057702   6464.078061    749.622408    -42.577232
PC46  -2372.572409  16089.071285 -22687.308650    -23.771417
PE01 -15724.442243   7356.813288 -23975.075325   -588.887147
PE02  15502.569399  -7636.169278  24029.631425     12.330048
PE03  16248.838015 -19732.275719 -14938.302156   -636.012418
PE04  -5974.946661  28879.790707  -2568.327314    -27.616834
PE05  17198.130883   1252.811131 -24060.280407   -109.016881
PE07  -8073.335757 -21226.164443  18987.091888    -12.092201
PE08   5979.547053 -28885.074907   2495.574818    -12.987365
PE09   7887.980737  21327.723725 -18947.194768   -786.075815
PE10   2847.504190  15817.600810  24857.016389   -502.255584
PE11  14565.816406  11568.112128  23020.349577    285.668668
PE12  -8241.909535  17326.293565  22549.883642   -368.902776
PE13 -13660.653644 -11924.619238 -23386.133795    430.132209
PE14  -6488.493085 -25594.517407 -18944.646408    102.257984
PE15   8573.146216 -17271.769759 -22444.063127    696.794088
PE18   6937.472312  16323.814190  15410.203110   -555.380893
PE19 -16977.182812  17358.266801  16937.464113  -3586.104998
PE21 -23741.659502  -9669.051069 -14793.578051   -503.959063
PE24  18219.638535  22935.526244  -4395.388919  -1036.207337
PE25  23788.635351   9963.684485  14540.032636   -596.331131
PE26 -27916.940856    810.477862  -9790.937277  -1863.052488
PE27 -18844.533352 -22540.869827   3523.822217   -478.181664
PE30  -2115.257749 -21749.020871  19945.360156  -1128.417291
PE31   2918.303664  22017.159606 -19570.253085   -512.283416
PE33 -25581.665208  12394.419187   8278.622987   -454.915572
PE34  25475.172201 -12511.823982  -8419.410569    -22.811509
PE36  27623.157951   -331.503640  10632.114335   -484.590018
PG01  -5164.652827 -13994.076060 -22309.764499    229.445610
PG02   8652.361095  13299.745866  21907.663955   -629.614679
PG03 -10880.164852 -22416.829631  -9476.152613   -374.102370
PG04  -1780.742369 -22442.321159  14011.531842    -56.565058
PG05  -1467.710304  17960.878610  19299.679371   -110.473270
PG06 -25918.493718   5812.537303   1606.520457    551.850486
PG07 -19712.562752  -8299.348255  16476.318598    265.089825
PG08   5669.545658 -25513.237178  -3418.398785   -101.671152
PG09 -10621.621075 -13484.094605  20177.627208   -243.191896
PG10  20091.062898   6588.598195 -16101.104692    -18.747774
PG11 -19507.009518  12046.174239  13390.421491    -69.903935
PG12   8209.137345  23137.910653 -10540.592649   -323.374055
PG13 -13238.270129  22794.797401   2080.684158    452.663159
PG14 -20460.144013  -8908.426143 -14489.053327    -57.036568
PG15  -2175.103693  26068.028772  -4078.889572      1.231168
PG16   6740.819047 -14897.656432  20537.830862   -524.904064
PG17 -15653.884599    566.354606 -21026.207190    690.581439
PG18  21603.647129   6172.571278  14280.360385    -83.391598
PG19 -17629.482382  11490.837080 -16270.098120    258.842406
PG20 -11937.694010  10160.428078  21451.614193    459.570277
PG21   3801.238007 -15760.768719 -20270.925481    153.139582
PG22  16842.960928 -15213.512129 -13223.624327    397.652092
PG23  20547.997094  15457.866488  -6946.063826      1.408830
PG24   1307.800257  16087.358833 -21403.815617    -12.465402
PG25  16384.228725  21009.707759  -2245.719254    407.765893
PG26  16135.997322  -5064.977309  20441.935309    239.638167
PG27  12706.117179 -21886.514636   7102.291011    137.011768
PG29   7309.630009  16269.033170  19609.822649   -578.039767
PG30 -26017.063329     89.323371   6074.793708   -534.186767
PG31  25833.093460  -6449.448272   2971.234667   -205.154487
PG32  16403.850214  -4087.874505 -20278.261775   -350.946842
PJ02 -22792.076377  18286.411687 -25819.559667     -0.466171
PJ03 -28075.797611  31191.476954  10384.976965     -8.091220
PJ04 -26145.935177  27649.383387  24161.952170    117.216358
PR01   8965.849099 -10913.468691 -21243.575711     20.586715
PR02   1506.187616 -24293.608811  -7470.987211    -23.345130
PR03  -6770.798183 -22470.634441   9960.155063     70.205311
PR04 -10794.037853  -8341.852883  21575.562068    170.893341
PR05  -9163.241313  10382.112099  21437.932530    105.562797
PR07   6989.359313  22165.508617 -10539.041249     47.279164
PR08  10926.221772   8187.507051 -21499.133652    -68.844357
PR09   -541.014468  11915.665793 -22526.529606     96.403971
PR11  23648.189502   9246.145969   2381.280072      9.956128
PR12  17273.946943  -1989.063496  18691.740147     24.054820
PR13   2216.349637 -11025.001942  22874.715416    -30.560594
PR14 -16199.192910 -14413.775070  13451.289598     24.163264
PR15 -23630.690052  -8962.427923  -3436.613153     91.958176
PR16 -17468.949699   1793.622296 -18509.341394      9.461350
PR17  -3940.404790 -10059.524856 -23093.777223    592.313505
PR18 -17350.740163   1735.521490 -18617.792278     59.860625
PR19 -22161.665055  11229.201231  -5770.374076   -216.818146
PR20 -13523.020794  16238.370541  14333.422214    -85.100274
PR21   5452.451393   8969.392250  23254.458689   -362.361552
PR22  18011.297238  -1326.194906  18038.102869     64.954921
PR24  12348.119923 -16811.408305 -14667.962960    136.927108
PR25   3308.405177  10689.108562  22931.220906     50.535215
EOF
